[{"OBJECT_NAME":"LEMUR-1","OBJECT_ID":"2014-033AL","EPOCH":"2026-03-05T20:45:12.532896","MEAN_MOTION":14.84775414,"ECCENTRICITY":0.00497262,"INCLINATION":97.771,"RA_OF_ASC_NODE":217.0843,"ARG_OF_PERICENTER":58.1584,"MEAN_ANOMALY":302.4457,"EPHEMERIS_TYPE":0,"CLASSIFICATION_TYPE":"U","NORAD_CAT_ID":40044,"ELEMENT_SET_NO":999,"REV_AT_EPOCH":63013,"BSTAR":0.00031721135,"MEAN_MOTION_DOT":2.696e-5,"MEAN_MOTION_DDOT":0},{"OBJECT_NAME":"LEMUR-2-GREENBERG","OBJECT_ID":"2017-042N","EPOCH":"2026-03-05T22:12:38.164608","MEAN_MOTION":15.27801693,"ECCENTRICITY":0.00093185,"INCLINATION":97.3767,"RA_OF_ASC_NODE":246.3002,"ARG_OF_PERICENTER":16.4949,"MEAN_ANOMALY":343.6591,"EPHEMERIS_TYPE":0,"CLASSIFICATION_TYPE":"U","NORAD_CAT_ID":42837,"ELEMENT_SET_NO":999,"REV_AT_EPOCH":47260,"BSTAR":0.00073016965,"MEAN_MOTION_DOT":0.00019807,"MEAN_MOTION_DDOT":0},{"OBJECT_NAME":"LEMUR-2-ANDIS","OBJECT_ID":"2017-042P","EPOCH":"2026-03-05T10:34:00.922944","MEAN_MOTION":15.30321098,"ECCENTRICITY":0.000941,"INCLINATION":97.3642,"RA_OF_ASC_NODE":245.7075,"ARG_OF_PERICENTER":18.4169,"MEAN_ANOMALY":341.741,"EPHEMERIS_TYPE":0,"CLASSIFICATION_TYPE":"U","NORAD_CAT_ID":42838,"ELEMENT_SET_NO":999,"REV_AT_EPOCH":47256,"BSTAR":0.00095685,"MEAN_MOTION_DOT":0.00028096,"MEAN_MOTION_DDOT":0},{"OBJECT_NAME":"LEMUR-2-MONSON","OBJECT_ID":"2017-042Q","EPOCH":"2026-03-05T22:02:38.207328","MEAN_MOTION":15.2483669,"ECCENTRICITY":0.00067271,"INCLINATION":97.4024,"RA_OF_ASC_NODE":246.4,"ARG_OF_PERICENTER":5.6555,"MEAN_ANOMALY":354.4757,"EPHEMERIS_TYPE":0,"CLASSIFICATION_TYPE":"U","NORAD_CAT_ID":42839,"ELEMENT_SET_NO":999,"REV_AT_EPOCH":47241,"BSTAR":0.00070187029,"MEAN_MOTION_DOT":0.00017392,"MEAN_MOTION_DDOT":0},{"OBJECT_NAME":"LEMUR-2-FURIAUS","OBJECT_ID":"2017-042R","EPOCH":"2026-03-05T13:38:33.540864","MEAN_MOTION":15.26004824,"ECCENTRICITY":0.0007588,"INCLINATION":97.374,"RA_OF_ASC_NODE":244.1642,"ARG_OF_PERICENTER":71.5362,"MEAN_ANOMALY":288.67,"EPHEMERIS_TYPE":0,"CLASSIFICATION_TYPE":"U","NORAD_CAT_ID":42840,"ELEMENT_SET_NO":999,"REV_AT_EPOCH":47238,"BSTAR":0.0011467,"MEAN_MOTION_DOT":0.00029527,"MEAN_MOTION_DDOT":0},{"OBJECT_NAME":"LEMUR-2-PETERG","OBJECT_ID":"2017-042S","EPOCH":"2026-03-05T22:47:20.945472","MEAN_MOTION":15.29420618,"ECCENTRICITY":0.00038168,"INCLINATION":97.397,"RA_OF_ASC_NODE":250.1443,"ARG_OF_PERICENTER":354.683,"MEAN_ANOMALY":5.4369,"EPHEMERIS_TYPE":0,"CLASSIFICATION_TYPE":"U","NORAD_CAT_ID":42841,"ELEMENT_SET_NO":999,"REV_AT_EPOCH":47263,"BSTAR":0.0007028856,"MEAN_MOTION_DOT":0.00020011,"MEAN_MOTION_DDOT":0},{"OBJECT_NAME":"LEMUR-2-DEMBITZ","OBJECT_ID":"2017-042T","EPOCH":"2026-03-05T17:44:40.133760","MEAN_MOTION":15.26762203,"ECCENTRICITY":0.00071394,"INCLINATION":97.3796,"RA_OF_ASC_NODE":247.2311,"ARG_OF_PERICENTER":29.8941,"MEAN_ANOMALY":330.2704,"EPHEMERIS_TYPE":0,"CLASSIFICATION_TYPE":"U","NORAD_CAT_ID":42842,"ELEMENT_SET_NO":999,"REV_AT_EPOCH":47254,"BSTAR":0.00085294076,"MEAN_MOTION_DOT":0.00022428,"MEAN_MOTION_DDOT":0},{"OBJECT_NAME":"LEMUR-2-ZACHARY","OBJECT_ID":"2017-042W","EPOCH":"2026-03-05T22:52:24.459168","MEAN_MOTION":15.41683522,"ECCENTRICITY":0.0003746,"INCLINATION":97.3649,"RA_OF_ASC_NODE":255.012,"ARG_OF_PERICENTER":30.6309,"MEAN_ANOMALY":329.5156,"EPHEMERIS_TYPE":0,"CLASSIFICATION_TYPE":"U","NORAD_CAT_ID":42845,"ELEMENT_SET_NO":999,"REV_AT_EPOCH":47325,"BSTAR":0.001164977,"MEAN_MOTION_DOT":0.0004931,"MEAN_MOTION_DDOT":0},{"OBJECT_NAME":"LEMUR-2-JIN-LUEN","OBJECT_ID":"2018-014C","EPOCH":"2026-03-05T17:33:52.468992","MEAN_MOTION":15.77056809,"ECCENTRICITY":0.0002249,"INCLINATION":97.5453,"RA_OF_ASC_NODE":354.6445,"ARG_OF_PERICENTER":128.0074,"MEAN_ANOMALY":232.1395,"EPHEMERIS_TYPE":0,"CLASSIFICATION_TYPE":"U","NORAD_CAT_ID":43182,"ELEMENT_SET_NO":999,"REV_AT_EPOCH":44484,"BSTAR":0.0014100266,"MEAN_MOTION_DOT":0.00234399,"MEAN_MOTION_DDOT":0},{"OBJECT_NAME":"LEMUR-2-KADI","OBJECT_ID":"2018-014E","EPOCH":"2026-03-05T19:54:15.916032","MEAN_MOTION":15.6327247,"ECCENTRICITY":7.725e-5,"INCLINATION":97.4718,"RA_OF_ASC_NODE":349.2782,"ARG_OF_PERICENTER":75.0735,"MEAN_ANOMALY":285.0609,"EPHEMERIS_TYPE":0,"CLASSIFICATION_TYPE":"U","NORAD_CAT_ID":43184,"ELEMENT_SET_NO":999,"REV_AT_EPOCH":44478,"BSTAR":0.0010482547,"MEAN_MOTION_DOT":0.00096891,"MEAN_MOTION_DDOT":0},{"OBJECT_NAME":"LEMUR-2-AMANDA-SVANTE","OBJECT_ID":"2021-034B","EPOCH":"2026-03-05T17:12:31.107744","MEAN_MOTION":15.28171862,"ECCENTRICITY":0.00022962,"INCLINATION":97.5836,"RA_OF_ASC_NODE":140.7299,"ARG_OF_PERICENTER":216.7339,"MEAN_ANOMALY":143.3743,"EPHEMERIS_TYPE":0,"CLASSIFICATION_TYPE":"U","NORAD_CAT_ID":48269,"ELEMENT_SET_NO":999,"REV_AT_EPOCH":26522,"BSTAR":0.0010588213,"MEAN_MOTION_DOT":0.00029082,"MEAN_MOTION_DDOT":0},{"OBJECT_NAME":"LEMUR-2-SPECIAL-K","OBJECT_ID":"2021-034F","EPOCH":"2026-03-05T16:49:17.315904","MEAN_MOTION":15.44684882,"ECCENTRICITY":0.00014319,"INCLINATION":97.5722,"RA_OF_ASC_NODE":145.842,"ARG_OF_PERICENTER":221.1939,"MEAN_ANOMALY":138.9201,"EPHEMERIS_TYPE":0,"CLASSIFICATION_TYPE":"U","NORAD_CAT_ID":48273,"ELEMENT_SET_NO":999,"REV_AT_EPOCH":26562,"BSTAR":0.0016929184,"MEAN_MOTION_DOT":0.00079581,"MEAN_MOTION_DDOT":0},{"OBJECT_NAME":"LEMUR-2-EMBRIONOVIS","OBJECT_ID":"2023-084AQ","EPOCH":"2026-03-05T21:20:25.263456","MEAN_MOTION":15.34565765,"ECCENTRICITY":0.00085109,"INCLINATION":97.6125,"RA_OF_ASC_NODE":205.448,"ARG_OF_PERICENTER":327.5892,"MEAN_ANOMALY":32.4827,"EPHEMERIS_TYPE":0,"CLASSIFICATION_TYPE":"U","NORAD_CAT_ID":56970,"ELEMENT_SET_NO":999,"REV_AT_EPOCH":15182,"BSTAR":0.00028537437,"MEAN_MOTION_DOT":9.485e-5,"MEAN_MOTION_DDOT":0},{"OBJECT_NAME":"LEMUR-2-MANO","OBJECT_ID":"2023-100E","EPOCH":"2026-03-05T23:32:35.173824","MEAN_MOTION":15.59614178,"ECCENTRICITY":0.00016481,"INCLINATION":99.4554,"RA_OF_ASC_NODE":86.2853,"ARG_OF_PERICENTER":62.9717,"MEAN_ANOMALY":297.1701,"EPHEMERIS_TYPE":0,"CLASSIFICATION_TYPE":"U","NORAD_CAT_ID":57390,"ELEMENT_SET_NO":999,"REV_AT_EPOCH":14590,"BSTAR":0.0016522051,"MEAN_MOTION_DOT":0.00133427,"MEAN_MOTION_DDOT":0},{"OBJECT_NAME":"LEMUR-2-DEVERILL-M-T","OBJECT_ID":"2023-100F","EPOCH":"2026-03-05T22:24:43.449408","MEAN_MOTION":15.34487487,"ECCENTRICITY":0.00084732,"INCLINATION":99.4576,"RA_OF_ASC_NODE":74.3188,"ARG_OF_PERICENTER":39.378,"MEAN_ANOMALY":320.8071,"EPHEMERIS_TYPE":0,"CLASSIFICATION_TYPE":"U","NORAD_CAT_ID":57391,"ELEMENT_SET_NO":999,"REV_AT_EPOCH":14538,"BSTAR":0.00092603588,"MEAN_MOTION_DOT":0.00030958,"MEAN_MOTION_DDOT":0},{"OBJECT_NAME":"LEMUR-2-BASS","OBJECT_ID":"2023-174D","EPOCH":"2026-03-05T17:31:55.902432","MEAN_MOTION":15.39589202,"ECCENTRICITY":0.00080591,"INCLINATION":97.3889,"RA_OF_ASC_NODE":148.2574,"ARG_OF_PERICENTER":175.9597,"MEAN_ANOMALY":184.1716,"EPHEMERIS_TYPE":0,"CLASSIFICATION_TYPE":"U","NORAD_CAT_ID":58259,"ELEMENT_SET_NO":999,"REV_AT_EPOCH":12942,"BSTAR":0.00052938075,"MEAN_MOTION_DOT":0.00020807,"MEAN_MOTION_DDOT":0}]
